STARLINK-35816          
1 66499U 25263Q   25337.91670139 -.01928728  00000+0 -17895-1 0  9997
2 66499  42.9992 177.0658 0001382 273.1854 258.2094 15.69572110  4213
STARLINK-35894          
1 66500U 25263R   25337.91670139 -.02439137  00000+0 -23978-1 0  9991
2 66500  42.9994 177.0764 0001222 273.5768 253.6539 15.68425619  4210
STARLINK-35897          
1 66501U 25263S   25337.91670139 -.01936098  00000+0 -17969-1 0  9992
2 66501  42.9991 177.0610 0001320 274.2218 259.0904 15.69576260  4211
STARLINK-35922          
1 66502U 25263T   25337.91670139 -.01897933  00000+0 -17596-1 0  9993
2 66502  42.9993 177.0460 0001550 273.9102 265.1815 15.69538149  4213
STARLINK-35917          
1 66503U 25263U   25337.91670139 -.01938256  00000+0 -17991-1 0  9997
2 66503  42.9992 177.0362 0001252 273.8246 269.0733 15.69577615  4214
STARLINK-35916          
1 66504U 25263V   25337.91670139  .00048983  00000+0  83795-3 0  9991
2 66504  42.9987 177.6279 0002190 281.8731  22.1515 15.50496713  4217
STARLINK-34766          
1 66505U 25263W   25337.91670139 -.01946606  00000+0 -18070-1 0  9996
2 66505  42.9991 177.0555 0001240 272.6216 262.5942 15.69590233  4211
STARLINK-34765          
1 66506U 25263X   25337.91670139 -.01938492  00000+0 -17989-1 0  9999
2 66506  42.9992 177.0512 0001280 267.2827 269.8532 15.69583732  4219
STARLINK-34767          
1 66507U 25263Y   25337.91670139 -.01937364  00000+0 -17977-1 0  9994
2 66507  42.9993 177.0406 0001369 275.1342 265.8343 15.69583375  4210
STARLINK-35608          
1 66508U 25263Z   25337.91670139 -.01935847  00000+0 -17966-1 0  9997
2 66508  42.9992 177.0270 0001345 272.0527 274.6780 15.69576598  4216
STARLINK-35598          
1 66509U 25263AA  25337.91670139 -.01930734  00000+0 -17913-1 0  9990
2 66509  42.9991 177.0058 0001372 270.0076 284.3887 15.69575323  4218
STARLINK-35600          
1 66510U 25263AB  25337.91670139 -.01924949  00000+0 -17858-1 0  9991
2 66510  42.9992 177.0207 0001384 269.0936 279.5574 15.69568556  4212
