CCSDS_OMM_VERS = 2.0
CREATION_DATE  = 
ORIGINATOR     = 

OBJECT_NAME    = STARLINK-35816
OBJECT_ID      = 2025-263Q
CENTER_NAME    = EARTH
REF_FRAME      = TEME
TIME_SYSTEM    = UTC
MEAN_ELEMENT_THEORY = SGP/SGP4

EPOCH          = 2025-12-03T22:00:03.000096
MEAN_MOTION    = 15.69572110
ECCENTRICITY   = .00013821
INCLINATION    = 42.9992
RA_OF_ASC_NODE = 177.0658
ARG_OF_PERICENTER = 273.1854
MEAN_ANOMALY   = 258.2094

EPHEMERIS_TYPE = 0
CLASSIFICATION_TYPE = U
NORAD_CAT_ID   = 66499
ELEMENT_SET_NO = 999
REV_AT_EPOCH   = 421
BSTAR          = -.17894532E-1
MEAN_MOTION_DOT = -.1928728E-1
MEAN_MOTION_DDOT = 0

CCSDS_OMM_VERS = 2.0
CREATION_DATE  = 
ORIGINATOR     = 

OBJECT_NAME    = STARLINK-35894
OBJECT_ID      = 2025-263R
CENTER_NAME    = EARTH
REF_FRAME      = TEME
TIME_SYSTEM    = UTC
MEAN_ELEMENT_THEORY = SGP/SGP4

EPOCH          = 2025-12-03T22:00:03.000096
MEAN_MOTION    = 15.68425619
ECCENTRICITY   = .00012229
INCLINATION    = 42.9994
RA_OF_ASC_NODE = 177.0764
ARG_OF_PERICENTER = 273.5768
MEAN_ANOMALY   = 253.6539

EPHEMERIS_TYPE = 0
CLASSIFICATION_TYPE = U
NORAD_CAT_ID   = 66500
ELEMENT_SET_NO = 999
REV_AT_EPOCH   = 421
BSTAR          = -.23978412E-1
MEAN_MOTION_DOT = -.2439137E-1
MEAN_MOTION_DDOT = 0

CCSDS_OMM_VERS = 2.0
CREATION_DATE  = 
ORIGINATOR     = 

OBJECT_NAME    = STARLINK-35897
OBJECT_ID      = 2025-263S
CENTER_NAME    = EARTH
REF_FRAME      = TEME
TIME_SYSTEM    = UTC
MEAN_ELEMENT_THEORY = SGP/SGP4

EPOCH          = 2025-12-03T22:00:03.000096
MEAN_MOTION    = 15.69576260
ECCENTRICITY   = .00013205
INCLINATION    = 42.9991
RA_OF_ASC_NODE = 177.0610
ARG_OF_PERICENTER = 274.2218
MEAN_ANOMALY   = 259.0904

EPHEMERIS_TYPE = 0
CLASSIFICATION_TYPE = U
NORAD_CAT_ID   = 66501
ELEMENT_SET_NO = 999
REV_AT_EPOCH   = 421
BSTAR          = -.17969175E-1
MEAN_MOTION_DOT = -.1936098E-1
MEAN_MOTION_DDOT = 0

CCSDS_OMM_VERS = 2.0
CREATION_DATE  = 
ORIGINATOR     = 

OBJECT_NAME    = STARLINK-35922
OBJECT_ID      = 2025-263T
CENTER_NAME    = EARTH
REF_FRAME      = TEME
TIME_SYSTEM    = UTC
MEAN_ELEMENT_THEORY = SGP/SGP4

EPOCH          = 2025-12-03T22:00:03.000096
MEAN_MOTION    = 15.69538149
ECCENTRICITY   = .00015508
INCLINATION    = 42.9993
RA_OF_ASC_NODE = 177.0460
ARG_OF_PERICENTER = 273.9102
MEAN_ANOMALY   = 265.1815

EPHEMERIS_TYPE = 0
CLASSIFICATION_TYPE = U
NORAD_CAT_ID   = 66502
ELEMENT_SET_NO = 999
REV_AT_EPOCH   = 421
BSTAR          = -.17596212E-1
MEAN_MOTION_DOT = -.1897933E-1
MEAN_MOTION_DDOT = 0

CCSDS_OMM_VERS = 2.0
CREATION_DATE  = 
ORIGINATOR     = 

OBJECT_NAME    = STARLINK-35917
OBJECT_ID      = 2025-263U
CENTER_NAME    = EARTH
REF_FRAME      = TEME
TIME_SYSTEM    = UTC
MEAN_ELEMENT_THEORY = SGP/SGP4

EPOCH          = 2025-12-03T22:00:03.000096
MEAN_MOTION    = 15.69577615
ECCENTRICITY   = .00012523
INCLINATION    = 42.9992
RA_OF_ASC_NODE = 177.0362
ARG_OF_PERICENTER = 273.8246
MEAN_ANOMALY   = 269.0733

EPHEMERIS_TYPE = 0
CLASSIFICATION_TYPE = U
NORAD_CAT_ID   = 66503
ELEMENT_SET_NO = 999
REV_AT_EPOCH   = 421
BSTAR          = -.17991343E-1
MEAN_MOTION_DOT = -.1938256E-1
MEAN_MOTION_DDOT = 0

CCSDS_OMM_VERS = 2.0
CREATION_DATE  = 
ORIGINATOR     = 

OBJECT_NAME    = STARLINK-35916
OBJECT_ID      = 2025-263V
CENTER_NAME    = EARTH
REF_FRAME      = TEME
TIME_SYSTEM    = UTC
MEAN_ELEMENT_THEORY = SGP/SGP4

EPOCH          = 2025-12-03T22:00:03.000096
MEAN_MOTION    = 15.50496713
ECCENTRICITY   = .00021906
INCLINATION    = 42.9987
RA_OF_ASC_NODE = 177.6279
ARG_OF_PERICENTER = 281.8731
MEAN_ANOMALY   = 22.1515

EPHEMERIS_TYPE = 0
CLASSIFICATION_TYPE = U
NORAD_CAT_ID   = 66504
ELEMENT_SET_NO = 999
REV_AT_EPOCH   = 421
BSTAR          = .83795107E-3
MEAN_MOTION_DOT = .48983E-3
MEAN_MOTION_DDOT = 0

CCSDS_OMM_VERS = 2.0
CREATION_DATE  = 
ORIGINATOR     = 

OBJECT_NAME    = STARLINK-34766
OBJECT_ID      = 2025-263W
CENTER_NAME    = EARTH
REF_FRAME      = TEME
TIME_SYSTEM    = UTC
MEAN_ELEMENT_THEORY = SGP/SGP4

EPOCH          = 2025-12-03T22:00:03.000096
MEAN_MOTION    = 15.69590233
ECCENTRICITY   = .00012401
INCLINATION    = 42.9991
RA_OF_ASC_NODE = 177.0555
ARG_OF_PERICENTER = 272.6216
MEAN_ANOMALY   = 262.5942

EPHEMERIS_TYPE = 0
CLASSIFICATION_TYPE = U
NORAD_CAT_ID   = 66505
ELEMENT_SET_NO = 999
REV_AT_EPOCH   = 421
BSTAR          = -.18069546E-1
MEAN_MOTION_DOT = -.1946606E-1
MEAN_MOTION_DDOT = 0

CCSDS_OMM_VERS = 2.0
CREATION_DATE  = 
ORIGINATOR     = 

OBJECT_NAME    = STARLINK-34765
OBJECT_ID      = 2025-263X
CENTER_NAME    = EARTH
REF_FRAME      = TEME
TIME_SYSTEM    = UTC
MEAN_ELEMENT_THEORY = SGP/SGP4

EPOCH          = 2025-12-03T22:00:03.000096
MEAN_MOTION    = 15.69583732
ECCENTRICITY   = .00012804
INCLINATION    = 42.9992
RA_OF_ASC_NODE = 177.0512
ARG_OF_PERICENTER = 267.2827
MEAN_ANOMALY   = 269.8532

EPHEMERIS_TYPE = 0
CLASSIFICATION_TYPE = U
NORAD_CAT_ID   = 66506
ELEMENT_SET_NO = 999
REV_AT_EPOCH   = 421
BSTAR          = -.1798897E-1
MEAN_MOTION_DOT = -.1938492E-1
MEAN_MOTION_DDOT = 0

CCSDS_OMM_VERS = 2.0
CREATION_DATE  = 
ORIGINATOR     = 

OBJECT_NAME    = STARLINK-34767
OBJECT_ID      = 2025-263Y
CENTER_NAME    = EARTH
REF_FRAME      = TEME
TIME_SYSTEM    = UTC
MEAN_ELEMENT_THEORY = SGP/SGP4

EPOCH          = 2025-12-03T22:00:03.000096
MEAN_MOTION    = 15.69583375
ECCENTRICITY   = .00013695
INCLINATION    = 42.9993
RA_OF_ASC_NODE = 177.0406
ARG_OF_PERICENTER = 275.1342
MEAN_ANOMALY   = 265.8343

EPHEMERIS_TYPE = 0
CLASSIFICATION_TYPE = U
NORAD_CAT_ID   = 66507
ELEMENT_SET_NO = 999
REV_AT_EPOCH   = 421
BSTAR          = -.17976714E-1
MEAN_MOTION_DOT = -.1937364E-1
MEAN_MOTION_DDOT = 0

CCSDS_OMM_VERS = 2.0
CREATION_DATE  = 
ORIGINATOR     = 

OBJECT_NAME    = STARLINK-35608
OBJECT_ID      = 2025-263Z
CENTER_NAME    = EARTH
REF_FRAME      = TEME
TIME_SYSTEM    = UTC
MEAN_ELEMENT_THEORY = SGP/SGP4

EPOCH          = 2025-12-03T22:00:03.000096
MEAN_MOTION    = 15.69576598
ECCENTRICITY   = .00013453
INCLINATION    = 42.9992
RA_OF_ASC_NODE = 177.0270
ARG_OF_PERICENTER = 272.0527
MEAN_ANOMALY   = 274.6780

EPHEMERIS_TYPE = 0
CLASSIFICATION_TYPE = U
NORAD_CAT_ID   = 66508
ELEMENT_SET_NO = 999
REV_AT_EPOCH   = 421
BSTAR          = -.17966102E-1
MEAN_MOTION_DOT = -.1935847E-1
MEAN_MOTION_DDOT = 0

CCSDS_OMM_VERS = 2.0
CREATION_DATE  = 
ORIGINATOR     = 

OBJECT_NAME    = STARLINK-35598
OBJECT_ID      = 2025-263AA
CENTER_NAME    = EARTH
REF_FRAME      = TEME
TIME_SYSTEM    = UTC
MEAN_ELEMENT_THEORY = SGP/SGP4

EPOCH          = 2025-12-03T22:00:03.000096
MEAN_MOTION    = 15.69575323
ECCENTRICITY   = .00013725
INCLINATION    = 42.9991
RA_OF_ASC_NODE = 177.0058
ARG_OF_PERICENTER = 270.0076
MEAN_ANOMALY   = 284.3887

EPHEMERIS_TYPE = 0
CLASSIFICATION_TYPE = U
NORAD_CAT_ID   = 66509
ELEMENT_SET_NO = 999
REV_AT_EPOCH   = 421
BSTAR          = -.17913216E-1
MEAN_MOTION_DOT = -.1930734E-1
MEAN_MOTION_DDOT = 0

CCSDS_OMM_VERS = 2.0
CREATION_DATE  = 
ORIGINATOR     = 

OBJECT_NAME    = STARLINK-35600
OBJECT_ID      = 2025-263AB
CENTER_NAME    = EARTH
REF_FRAME      = TEME
TIME_SYSTEM    = UTC
MEAN_ELEMENT_THEORY = SGP/SGP4

EPOCH          = 2025-12-03T22:00:03.000096
MEAN_MOTION    = 15.69568556
ECCENTRICITY   = .00013843
INCLINATION    = 42.9992
RA_OF_ASC_NODE = 177.0207
ARG_OF_PERICENTER = 269.0936
MEAN_ANOMALY   = 279.5574

EPHEMERIS_TYPE = 0
CLASSIFICATION_TYPE = U
NORAD_CAT_ID   = 66510
ELEMENT_SET_NO = 999
REV_AT_EPOCH   = 421
BSTAR          = -.17857569E-1
MEAN_MOTION_DOT = -.1924949E-1
MEAN_MOTION_DDOT = 0

